{"type":"Topology","transform":{"scale":[3.868185665442403e-05,4.674658485957484e-05],"translate":[32.51035658500018,0.214319320000186]},"arcs":[[[1384,2416],[-88,-56]],[[1296,2360],[73,-96]],[[1369,2264],[66,-178]],[[1435,2086],[-109,-116]],[[1326,1970],[81,-65]],[[1407,1905],[138,-3]],[[1545,1902],[181,-45]],[[1726,1857],[24,132]],[[1750,1989],[38,0]],[[1788,1989],[17,-27]],[[1805,1962],[79,50]],[[1884,2012],[98,-1]],[[1982,2011],[182,137]],[[2164,2148],[204,12]],[[2368,2160],[87,-16]],[[2455,2144],[20,35]],[[2475,2179],[65,-30]],[[2540,2149],[-34,-32]],[[2506,2117],[142,-56]],[[2648,2061],[-45,77]],[[2603,2138],[29,143]],[[2632,2281],[-107,40]],[[2525,2321],[-35,59]],[[2490,2380],[-95,69]],[[2395,2449],[-42,137]],[[2353,2586],[-55,61]],[[2298,2647],[-73,41]],[[2225,2688],[-27,44]],[[2198,2732],[68,127]],[[2266,2859],[-119,-61]],[[2147,2798],[-109,62]],[[2038,2860],[-94,3]],[[1944,2863],[32,-74]],[[1976,2789],[-85,-55]],[[1891,2734],[27,-60]],[[1918,2674],[65,13]],[[1983,2687],[-100,-69]],[[1883,2618],[-106,-1]],[[1777,2617],[-150,-147]],[[1627,2470],[-87,-36]],[[1540,2434],[-148,-13]],[[1392,2421],[-8,-5]],[[2024,4049],[-78,-3]],[[1946,4046],[-48,-31]],[[1898,4015],[-157,-10]],[[1741,4005],[-49,-24]],[[1692,3981],[-281,46]],[[1411,4027],[-31,-323]],[[1380,3704],[-133,-51]],[[1247,3653],[-25,-60]],[[1222,3593],[-76,-39]],[[1146,3554],[11,-36]],[[1157,3518],[-140,-61]],[[1017,3457],[121,-178]],[[1138,3279],[53,-219]],[[1191,3060],[-65,-109]],[[1126,2951],[-9,-91]],[[1117,2860],[83,-34]],[[1200,2826],[72,-266]],[[1272,2560],[64,-104]],[[1336,2456],[48,-40]],[[1384,2416],[162,20]],[[1546,2436],[104,46]],[[1650,2482],[127,135]],[[1777,2617],[111,3]],[[1888,2620],[95,67]],[[1944,2863],[80,35]],[[2024,2898],[26,41]],[[2050,2939],[-12,21]],[[2038,2960],[20,60]],[[2058,3020],[-32,53]],[[2026,3073],[254,19]],[[2280,3092],[63,52]],[[2343,3144],[33,72]],[[2376,3216],[56,40]],[[2432,3256],[-140,258]],[[2292,3514],[-146,141]],[[2146,3655],[-16,130]],[[2130,3785],[22,101]],[[2152,3886],[-116,143]],[[2036,4029],[-12,20]],[[1726,1857],[-127,21]],[[1599,1878],[39,-89]],[[1638,1789],[-75,-67]],[[1563,1722],[15,-31]],[[1578,1691],[32,-2]],[[1610,1689],[-107,-166]],[[1503,1523],[77,23]],[[1580,1546],[175,-217]],[[1755,1329],[164,-151]],[[1919,1178],[188,-96]],[[2107,1082],[9,-28]],[[2116,1054],[110,-30]],[[2226,1024],[182,-120]],[[2408,904],[95,-168]],[[2503,736],[5,-18]],[[2508,718],[-22,-6]],[[2486,712],[102,-90]],[[2588,622],[141,-365]],[[2729,257],[474,-257]],[[3203,0],[64,134]],[[3267,134],[72,294]],[[3339,428],[51,96]],[[3390,524],[221,301]],[[3611,825],[225,221]],[[3836,1046],[-277,292]],[[3559,1338],[-202,180]],[[3357,1518],[-111,182]],[[3246,1700],[-107,64]],[[3139,1764],[-63,67]],[[3076,1831],[-173,59]],[[2903,1890],[-152,77]],[[2751,1967],[-100,87]],[[2651,2054],[-3,7]],[[2577,3660],[-128,113]],[[2449,3773],[37,186]],[[2486,3959],[-93,125]],[[2393,4084],[-103,11]],[[2290,4095],[-266,-46]],[[2024,4049],[128,-163]],[[2050,2939],[-16,-33]],[[2034,2906],[-72,-42]],[[1962,2864],[76,-4]],[[2603,2138],[59,-106]],[[2662,2032],[190,-118]],[[2852,1914],[224,-83]],[[3836,1046],[259,243]],[[4095,1289],[-156,159]],[[3939,1448],[124,108]],[[4063,1556],[3,81]],[[4066,1637],[-41,74]],[[4025,1711],[-69,57]],[[3956,1768],[26,128]],[[3982,1896],[-75,122]],[[3907,2018],[137,136]],[[4044,2154],[2,68]],[[4046,2222],[-37,122]],[[4009,2344],[-104,51]],[[3905,2395],[-168,47]],[[3737,2442],[-107,-3]],[[3630,2439],[-123,-52]],[[3507,2387],[-155,103]],[[3352,2490],[-22,28]],[[3330,2518],[119,55]],[[3449,2573],[-84,14]],[[3365,2587],[-22,59]],[[3343,2646],[-35,14]],[[3308,2660],[-26,41]],[[3282,2701],[43,39]],[[3325,2740],[-8,44]],[[3317,2784],[29,23]],[[3346,2807],[-5,107]],[[3341,2914],[-70,223]],[[3271,3137],[-59,83]],[[3212,3220],[-21,173]],[[3191,3393],[12,114]],[[3203,3507],[-48,1]],[[3155,3508],[-112,-45]],[[3043,3463],[-217,21]],[[2826,3484],[-53,225]],[[2773,3709],[-178,-58]],[[2595,3651],[-18,9]],[[279,1800],[165,-21]],[[444,1779],[-22,-9]],[[422,1770],[91,-166]],[[513,1604],[35,-126]],[[548,1478],[92,-94]],[[640,1384],[6,-35]],[[646,1349],[173,-133]],[[819,1216],[160,7]],[[979,1223],[437,60]],[[1416,1283],[294,107]],[[1710,1390],[-130,156]],[[1563,1722],[61,40]],[[1624,1762],[13,44]],[[1637,1806],[-55,85]],[[1582,1891],[-175,14]],[[1200,2826],[-84,45]],[[1116,2871],[-141,13]],[[975,2884],[-365,-118]],[[610,2766],[-127,-88]],[[483,2678],[-97,-99]],[[386,2579],[-58,-179]],[[328,2400],[-141,-198]],[[187,2202],[-119,-98]],[[68,2104],[-68,-115]],[[0,1989],[67,-81]],[[67,1908],[181,-54]],[[248,1854],[31,-54]],[[279,1800],[0,0]]],"objects":{"adm4":{"type":"GeometryCollection","geometries":[{"type":"Polygon","arcs":[[0,1,2,3,4,5,6,7,8,9,10,11,12,13,14,15,16,17,18,19,20,21,22,23,24,25,26,27,28,29,30,31,32,33,34,35,36,37,38,39,40,41]],"properties":{"pcode":"UG10080101","name":"Central Division"}},{"type":"Polygon","arcs":[[42,43,44,45,46,47,48,49,50,51,52,53,54,55,56,57,58,59,60,61,62,63,64,65,-36,-35,-34,-33,66,67,68,69,70,71,72,73,74,75,76,77,78,79,80]],"properties":{"pcode":"UG10080102","name":"Kawempe Division"}},{"type":"Polygon","arcs":[[-19,-18,-17,-16,-15,-14,-13,-12,-11,-10,-9,-8,81,82,83,84,85,86,87,88,89,90,91,92,93,94,95,96,97,98,99,100,101,102,103,104,105,106,107,108,109,110,111,112,113]],"properties":{"pcode":"UG10080103","name":"Makindye Division"}},{"type":"Polygon","arcs":[[114,115,116,117,118,119,-79,-78,-77,-76,-75,-74,-73,-72,-71,-70,-69,120,121,122,-31,-30,-29,-28,-27,-26,-25,-24,-23,-22,-21,123,124,125,-110,-109,-108,-107,-106,126,127,128,129,130,131,132,133,134,135,136,137,138,139,140,141,142,143,144,145,146,147,148,149,150,151,152,153,154,155,156,157,158,159,160,161]],"properties":{"pcode":"UG10080104","name":"Nakawa Division"}},{"type":"Polygon","arcs":[[162,163,164,165,166,167,168,169,170,171,172,-88,-87,-86,-85,173,174,175,176,-5,-4,-3,-2,-1,-61,-60,-59,177,178,179,180,181,182,183,184,185,186,187,188,189]],"properties":{"pcode":"UG10080105","name":"Rubaga Division"}}]}}}
